start=new Date('2023-04-22T00:00:00.000Z').valueOf();
sats=[{"EPHEMERIS_TYPE":"0","REV_AT_EPOCH":"14856","OBJECT_TYPE":"PAYLOAD","OBJECT_NAME":"STARLINK-1614","MEAN_ELEMENT_THEORY":"SGP4","DECAY_DATE":null,"TLE_LINE2":"2 46124  53.0538 324.2133 0000531  64.7077 295.3967 15.06383892148561","PERIAPSIS":"546.895","OBJECT_ID":"2020-057H","INCLINATION":"53.0538","ARG_OF_PERICENTER":"64.7077","ECCENTRICITY":"0.00005310","CLASSIFICATION_TYPE":"U","TLE_LINE1":"1 46124U 20057H   23111.57957671  .00044853  00000-0  30123-2 0  9991","COUNTRY_CODE":"US","GP_ID":"230501635","SEMIMAJOR_AXIS":"6925.398","RCS_SIZE":"LARGE","LAUNCH_DATE":"2020-08-18","CENTER_NAME":"EARTH","PERIOD":"95.593","MEAN_MOTION_DOT":"0.00044853","MEAN_MOTION":"15.06383892","TIME_SYSTEM":"UTC","FILE":"3891546","APOAPSIS":"547.631","MEAN_MOTION_DDOT":"0.0000000000000","MEAN_ANOMALY":"295.3967","RA_OF_ASC_NODE":"324.2133","EPOCH":"2023-04-21T13:54:35.427744","NORAD_CAT_ID":"46124","BSTAR":"0.00301230000000","ELEMENT_SET_NO":"999","SITE":"AFETR","REF_FRAME":"TEME"},{"SITE":"AFETR","REF_FRAME":"TEME","EPOCH":"2023-04-21T16:39:10.533888","NORAD_CAT_ID":"46125","BSTAR":"0.00308440000000","ELEMENT_SET_NO":"999","RA_OF_ASC_NODE":"3.6985","MEAN_ANOMALY":"260.0226","FILE":"3891716","APOAPSIS":"547.941","MEAN_MOTION_DDOT":"0.0000000000000","TIME_SYSTEM":"UTC","MEAN_MOTION":"15.06428942","LAUNCH_DATE":"2020-08-18","CENTER_NAME":"EARTH","PERIOD":"95.590","MEAN_MOTION_DOT":"0.00045997","RCS_SIZE":"LARGE","CLASSIFICATION_TYPE":"U","TLE_LINE1":"1 46125U 20057J   23111.69387192  .00045997  00000-0  30844-2 0  9990","COUNTRY_CODE":"US","GP_ID":"230525755","SEMIMAJOR_AXIS":"6925.260","ECCENTRICITY":"0.00011790","INCLINATION":"53.0545","ARG_OF_PERICENTER":"100.0896","OBJECT_ID":"2020-057J","TLE_LINE2":"2 46125  53.0545   3.6985 0001179 100.0896 260.0226 15.06428942148614","PERIAPSIS":"546.308","OBJECT_TYPE":"PAYLOAD","OBJECT_NAME":"STARLINK-1618","DECAY_DATE":null,"MEAN_ELEMENT_THEORY":"SGP4","EPHEMERIS_TYPE":"0","REV_AT_EPOCH":"14861"},{"CENTER_NAME":"EARTH","LAUNCH_DATE":"2020-08-18","MEAN_MOTION_DOT":"0.00035861","PERIOD":"95.594","RCS_SIZE":"LARGE","CLASSIFICATION_TYPE":"U","GP_ID":"230493613","TLE_LINE1":"1 46126U 20057K   23111.40269367  .00035861  00000-0  24157-2 0  9992","SEMIMAJOR_AXIS":"6925.420","COUNTRY_CODE":"US","ARG_OF_PERICENTER":"113.6628","INCLINATION":"53.0549","ECCENTRICITY":"0.00013730","OBJECT_ID":"2020-057K","TLE_LINE2":"2 46126  53.0549   5.0054 0001373 113.6628 246.4506 15.06376728147310","PERIAPSIS":"546.334","OBJECT_NAME":"STARLINK-1619","OBJECT_TYPE":"PAYLOAD","DECAY_DATE":null,"MEAN_ELEMENT_THEORY":"SGP4","EPHEMERIS_TYPE":"0","REV_AT_EPOCH":"14731","REF_FRAME":"TEME","SITE":"AFETR","NORAD_CAT_ID":"46126","EPOCH":"2023-04-21T09:39:52.733088","ELEMENT_SET_NO":"999","BSTAR":"0.00241570000000","RA_OF_ASC_NODE":"5.0054","MEAN_ANOMALY":"246.4506","APOAPSIS":"548.236","FILE":"3891529","MEAN_MOTION_DDOT":"0.0000000000000","TIME_SYSTEM":"UTC","MEAN_MOTION":"15.06376728"},{"MEAN_MOTION":"15.06424425","TIME_SYSTEM":"UTC","MEAN_MOTION_DDOT":"0.0000000000000","APOAPSIS":"548.050","FILE":"3891716","MEAN_ANOMALY":"266.1650","RA_OF_ASC_NODE":"342.6678","ELEMENT_SET_NO":"999","BSTAR":"0.00147490000000","NORAD_CAT_ID":"46127","EPOCH":"2023-04-21T22:10:53.722560","REF_FRAME":"TEME","SITE":"AFETR","REV_AT_EPOCH":"14766","EPHEMERIS_TYPE":"0","MEAN_ELEMENT_THEORY":"SGP4","DECAY_DATE":null,"OBJECT_TYPE":"PAYLOAD","OBJECT_NAME":"STARLINK-1621","PERIAPSIS":"546.227","TLE_LINE2":"2 46127  53.0549 342.6678 0001316  93.9490 266.1650 15.06424425147662","OBJECT_ID":"2020-057L","INCLINATION":"53.0549","ARG_OF_PERICENTER":"93.9490","ECCENTRICITY":"0.00013160","GP_ID":"230524762","TLE_LINE1":"1 46127U 20057L   23111.92423290  .00021770  00000-0  14749-2 0  9997","COUNTRY_CODE":"US","SEMIMAJOR_AXIS":"6925.274","CLASSIFICATION_TYPE":"U","RCS_SIZE":"LARGE","MEAN_MOTION_DOT":"0.00021770","PERIOD":"95.591","LAUNCH_DATE":"2020-08-18","CENTER_NAME":"EARTH"},{"ECCENTRICITY":"0.00012500","ARG_OF_PERICENTER":"108.4672","INCLINATION":"53.0542","CLASSIFICATION_TYPE":"U","TLE_LINE1":"1 46128U 20057M   23111.88552259  .00021645  00000-0  14687-2 0  9993","SEMIMAJOR_AXIS":"6925.440","GP_ID":"230524507","COUNTRY_CODE":"US","RCS_SIZE":"LARGE","CENTER_NAME":"EARTH","LAUNCH_DATE":"2020-08-18","MEAN_MOTION_DOT":"0.00021645","PERIOD":"95.594","EPHEMERIS_TYPE":"0","REV_AT_EPOCH":"14794","OBJECT_TYPE":"PAYLOAD","OBJECT_NAME":"STARLINK-1622","DECAY_DATE":null,"MEAN_ELEMENT_THEORY":"SGP4","TLE_LINE2":"2 46128  53.0542 322.8399 0001250 108.4672 251.6453 15.06370229147940","PERIAPSIS":"546.439","OBJECT_ID":"2020-057M","MEAN_ANOMALY":"251.6453","RA_OF_ASC_NODE":"322.8399","NORAD_CAT_ID":"46128","EPOCH":"2023-04-21T21:15:09.151776","ELEMENT_SET_NO":"999","BSTAR":"0.00146870000000","REF_FRAME":"TEME","SITE":"AFETR","MEAN_MOTION":"15.06370229","TIME_SYSTEM":"UTC","APOAPSIS":"548.170","FILE":"3891716","MEAN_MOTION_DDOT":"0.0000000000000"},{"MEAN_ANOMALY":"305.0861","RA_OF_ASC_NODE":"322.9586","EPOCH":"2023-04-21T20:37:59.354400","NORAD_CAT_ID":"46129","BSTAR":"0.00165250000000","ELEMENT_SET_NO":"999","SITE":"AFETR","REF_FRAME":"TEME","MEAN_MOTION":"15.06417704","TIME_SYSTEM":"UTC","FILE":"3891716","APOAPSIS":"547.740","MEAN_MOTION_DDOT":"0.0000000000000","ARG_OF_PERICENTER":"55.0207","ECCENTRICITY":"0.00008380","INCLINATION":"53.0538","CLASSIFICATION_TYPE":"U","COUNTRY_CODE":"US","TLE_LINE1":"1 46129U 20057N   23111.85971475  .00024430  00000-0  16525-2 0  9994","GP_ID":"230525255","SEMIMAJOR_AXIS":"6925.294","RCS_SIZE":"LARGE","LAUNCH_DATE":"2020-08-18","CENTER_NAME":"EARTH","MEAN_MOTION_DOT":"0.00024430","PERIOD":"95.591","EPHEMERIS_TYPE":"0","REV_AT_EPOCH":"14794","OBJECT_TYPE":"PAYLOAD","OBJECT_NAME":"STARLINK-1623","DECAY_DATE":null,"MEAN_ELEMENT_THEORY":"SGP4","TLE_LINE2":"2 46129  53.0538 322.9586 0000838  55.0207 305.0861 15.06417704147944","PERIAPSIS":"546.579","OBJECT_ID":"2020-057N"},{"RA_OF_ASC_NODE":"323.7027","MEAN_ANOMALY":"274.8421","REF_FRAME":"TEME","SITE":"AFETR","ELEMENT_SET_NO":"999","BSTAR":"0.00143250000000","NORAD_CAT_ID":"46130","EPOCH":"2023-04-21T16:39:08.851680","MEAN_MOTION":"15.06393341","MEAN_MOTION_DDOT":"0.0000000000000","APOAPSIS":"547.661","FILE":"3891716","TIME_SYSTEM":"UTC","GP_ID":"230525507","TLE_LINE1":"1 46130U 20057P   23111.69385245  .00021116  00000-0  14325-2 0  9996","COUNTRY_CODE":"US","SEMIMAJOR_AXIS":"6925.369","CLASSIFICATION_TYPE":"U","ECCENTRICITY":"0.00006170","INCLINATION":"53.0534","ARG_OF_PERICENTER":"85.2638","PERIOD":"95.593","MEAN_MOTION_DOT":"0.00021116","LAUNCH_DATE":"2020-08-18","CENTER_NAME":"EARTH","RCS_SIZE":"LARGE","DECAY_DATE":null,"MEAN_ELEMENT_THEORY":"SGP4","OBJECT_NAME":"STARLINK-1624","OBJECT_TYPE":"PAYLOAD","REV_AT_EPOCH":"14916","EPHEMERIS_TYPE":"0","OBJECT_ID":"2020-057P","PERIAPSIS":"546.807","TLE_LINE2":"2 46130  53.0534 323.7027 0000617  85.2638 274.8421 15.06393341149160"},{"TIME_SYSTEM":"UTC","APOAPSIS":"548.278","FILE":"3891716","MEAN_MOTION_DDOT":"0.0000000000000","MEAN_MOTION":"15.06423156","NORAD_CAT_ID":"46131","EPOCH":"2023-04-21T20:08:49.140096","ELEMENT_SET_NO":"999","BSTAR":"0.00134640000000","REF_FRAME":"TEME","SITE":"AFETR","MEAN_ANOMALY":"275.3216","RA_OF_ASC_NODE":"343.0458","TLE_LINE2":"2 46131  53.0540 343.0458 0001639  84.7960 275.3216 15.06423156148916","PERIAPSIS":"546.008","OBJECT_ID":"2020-057Q","EPHEMERIS_TYPE":"0","REV_AT_EPOCH":"14891","OBJECT_NAME":"STARLINK-1625","OBJECT_TYPE":"PAYLOAD","DECAY_DATE":null,"MEAN_ELEMENT_THEORY":"SGP4","RCS_SIZE":"LARGE","LAUNCH_DATE":"2020-08-18","CENTER_NAME":"EARTH","MEAN_MOTION_DOT":"0.00019842","PERIOD":"95.591","INCLINATION":"53.0540","ARG_OF_PERICENTER":"84.7960","ECCENTRICITY":"0.00016390","CLASSIFICATION_TYPE":"U","TLE_LINE1":"1 46131U 20057Q   23111.83945764  .00019842  00000-0  13464-2 0  9997","GP_ID":"230524262","COUNTRY_CODE":"US","SEMIMAJOR_AXIS":"6925.278"},{"MEAN_MOTION_DOT":"0.00024127","PERIOD":"95.593","LAUNCH_DATE":"2020-08-18","CENTER_NAME":"EARTH","RCS_SIZE":"LARGE","GP_ID":"230494615","TLE_LINE1":"1 46132U 20057R   23111.41373670  .00024127  00000-0  16340-2 0  9991","COUNTRY_CODE":"US","SEMIMAJOR_AXIS":"6925.411","CLASSIFICATION_TYPE":"U","ECCENTRICITY":"0.00009250","INCLINATION":"53.0550","ARG_OF_PERICENTER":"109.1753","OBJECT_ID":"2020-057R","PERIAPSIS":"546.635","TLE_LINE2":"2 46132  53.0550   4.9557 0000925 109.1753 250.9336 15.06379774148570","MEAN_ELEMENT_THEORY":"SGP4","DECAY_DATE":null,"OBJECT_NAME":"STARLINK-1630","OBJECT_TYPE":"PAYLOAD","REV_AT_EPOCH":"14857","EPHEMERIS_TYPE":"0","SITE":"AFETR","REF_FRAME":"TEME","BSTAR":"0.00163400000000","ELEMENT_SET_NO":"999","EPOCH":"2023-04-21T09:55:46.850880","NORAD_CAT_ID":"46132","RA_OF_ASC_NODE":"4.9557","MEAN_ANOMALY":"250.9336","MEAN_MOTION_DDOT":"0.0000000000000","FILE":"3891529","APOAPSIS":"547.916","TIME_SYSTEM":"UTC","MEAN_MOTION":"15.06379774"},{"MEAN_ANOMALY":"283.9330","RA_OF_ASC_NODE":"322.8693","EPOCH":"2023-04-21T21:04:32.104704","NORAD_CAT_ID":"46133","BSTAR":"-0.00003581100000","ELEMENT_SET_NO":"999","SITE":"AFETR","REF_FRAME":"TEME","MEAN_MOTION":"15.06382988","TIME_SYSTEM":"UTC","FILE":"3891716","APOAPSIS":"547.730","MEAN_MOTION_DDOT":"0.0000000000000","ARG_OF_PERICENTER":"76.1734","ECCENTRICITY":"0.00006700","INCLINATION":"53.0526","CLASSIFICATION_TYPE":"U","SEMIMAJOR_AXIS":"6925.401","TLE_LINE1":"1 46133U 20057S   23111.87814936 -.00000814  00000-0 -35811-4 0  9992","GP_ID":"230525756","COUNTRY_CODE":"US","RCS_SIZE":"LARGE","LAUNCH_DATE":"2020-08-18","CENTER_NAME":"EARTH","MEAN_MOTION_DOT":"-0.00000814","PERIOD":"95.593","EPHEMERIS_TYPE":"0","REV_AT_EPOCH":"14919","OBJECT_TYPE":"PAYLOAD","OBJECT_NAME":"STARLINK-1637","DECAY_DATE":null,"MEAN_ELEMENT_THEORY":"SGP4","TLE_LINE2":"2 46133  53.0526 322.8693 0000670  76.1734 283.9330 15.06382988149196","PERIAPSIS":"546.802","OBJECT_ID":"2020-057S"}];
